<?xml version="1.0" encoding="UTF-8"?>
<kml xmlns="http://www.opengis.net/kml/2.2">
  <Document>
    <name>Orte</name>
    <Style id="icon-1546-0288D1-nodesc-normal">
      <IconStyle>
        <color>ffd18802</color>
        <scale>1</scale>
        <Icon>
          <href>https://www.gstatic.com/mapspro/images/stock/503-wht-blank_maps.png</href>
        </Icon>
      </IconStyle>
      <LabelStyle>
        <scale>0</scale>
      </LabelStyle>
      <BalloonStyle>
        <text><![CDATA[<h3>$[name]</h3>]]></text>
      </BalloonStyle>
    </Style>
    <Style id="icon-1546-0288D1-nodesc-highlight">
      <IconStyle>
        <color>ffd18802</color>
        <scale>1</scale>
        <Icon>
          <href>https://www.gstatic.com/mapspro/images/stock/503-wht-blank_maps.png</href>
        </Icon>
      </IconStyle>
      <LabelStyle>
        <scale>1</scale>
      </LabelStyle>
      <BalloonStyle>
        <text><![CDATA[<h3>$[name]</h3>]]></text>
      </BalloonStyle>
    </Style>
    <StyleMap id="icon-1546-0288D1-nodesc">
      <Pair>
        <key>normal</key>
        <styleUrl>#icon-1546-0288D1-nodesc-normal</styleUrl>
      </Pair>
      <Pair>
        <key>highlight</key>
        <styleUrl>#icon-1546-0288D1-nodesc-highlight</styleUrl>
      </Pair>
    </StyleMap>
    <Style id="icon-1604-0288D1-normal">
      <IconStyle>
        <color>ffd18802</color>
        <scale>1</scale>
        <Icon>
          <href>https://www.gstatic.com/mapspro/images/stock/503-wht-blank_maps.png</href>
        </Icon>
      </IconStyle>
      <LabelStyle>
        <scale>0</scale>
      </LabelStyle>
    </Style>
    <Style id="icon-1604-0288D1-highlight">
      <IconStyle>
        <color>ffd18802</color>
        <scale>1</scale>
        <Icon>
          <href>https://www.gstatic.com/mapspro/images/stock/503-wht-blank_maps.png</href>
        </Icon>
      </IconStyle>
      <LabelStyle>
        <scale>1</scale>
      </LabelStyle>
    </Style>
    <StyleMap id="icon-1604-0288D1">
      <Pair>
        <key>normal</key>
        <styleUrl>#icon-1604-0288D1-normal</styleUrl>
      </Pair>
      <Pair>
        <key>highlight</key>
        <styleUrl>#icon-1604-0288D1-highlight</styleUrl>
      </Pair>
    </StyleMap>
    <Style id="icon-1604-0288D1-nodesc-normal">
      <IconStyle>
        <color>ffd18802</color>
        <scale>1</scale>
        <Icon>
          <href>https://www.gstatic.com/mapspro/images/stock/503-wht-blank_maps.png</href>
        </Icon>
      </IconStyle>
      <LabelStyle>
        <scale>0</scale>
      </LabelStyle>
      <BalloonStyle>
        <text><![CDATA[<h3>$[name]</h3>]]></text>
      </BalloonStyle>
    </Style>
    <Style id="icon-1604-0288D1-nodesc-highlight">
      <IconStyle>
        <color>ffd18802</color>
        <scale>1</scale>
        <Icon>
          <href>https://www.gstatic.com/mapspro/images/stock/503-wht-blank_maps.png</href>
        </Icon>
      </IconStyle>
      <LabelStyle>
        <scale>1</scale>
      </LabelStyle>
      <BalloonStyle>
        <text><![CDATA[<h3>$[name]</h3>]]></text>
      </BalloonStyle>
    </Style>
    <StyleMap id="icon-1604-0288D1-nodesc">
      <Pair>
        <key>normal</key>
        <styleUrl>#icon-1604-0288D1-nodesc-normal</styleUrl>
      </Pair>
      <Pair>
        <key>highlight</key>
        <styleUrl>#icon-1604-0288D1-nodesc-highlight</styleUrl>
      </Pair>
    </StyleMap>
    <Placemark>
      <name>Olbia</name>
      <description>Dies ist eine Beschreibung</description>
      <styleUrl>#icon-1604-0288D1</styleUrl>
      <Point>
        <coordinates>
          9.4964429,40.9235764,0
        </coordinates>
      </Point>
    </Placemark>
    <Placemark>
      <name>La Maddalena</name>
      <styleUrl>#icon-1604-0288D1-nodesc</styleUrl>
      <Point>
        <coordinates>
          9.4047122,41.2165538,0
        </coordinates>
      </Point>
    </Placemark>
    <Placemark>
      <name>Castelsardo</name>
      <styleUrl>#icon-1604-0288D1-nodesc</styleUrl>
      <Point>
        <coordinates>
          8.708592,40.913692,0
        </coordinates>
      </Point>
    </Placemark>
    <Placemark>
      <name>Porto Torres</name>
      <styleUrl>#icon-1604-0288D1-nodesc</styleUrl>
      <Point>
        <coordinates>
          8.4022929,40.8333682,0
        </coordinates>
      </Point>
    </Placemark>
    <Placemark>
      <name>Alghero</name>
      <styleUrl>#icon-1604-0288D1-nodesc</styleUrl>
      <Point>
        <coordinates>
          8.3192949,40.5579517,0
        </coordinates>
      </Point>
    </Placemark>
    <Placemark>
      <name>Bosa</name>
      <styleUrl>#icon-1604-0288D1-nodesc</styleUrl>
      <Point>
        <coordinates>
          8.5036658,40.2952312,0
        </coordinates>
      </Point>
    </Placemark>
    <Placemark>
      <name>Cagliari</name>
      <styleUrl>#icon-1546-0288D1-nodesc</styleUrl>
      <Point>
        <coordinates>
          9.1216613,39.2238411,0
        </coordinates>
      </Point>
    </Placemark>
    <Placemark>
      <name>Arbatax</name>
      <styleUrl>#icon-1604-0288D1-nodesc</styleUrl>
      <Point>
        <coordinates>
          9.7035589,39.9334339,0
        </coordinates>
      </Point>
    </Placemark>
    <Placemark>
      <name>Cala Gonone</name>
      <styleUrl>#icon-1604-0288D1-nodesc</styleUrl>
      <Point>
        <coordinates>
          9.6271755,40.2803536,0
        </coordinates>
      </Point>
    </Placemark>
    <Placemark>
      <name>Posada</name>
      <styleUrl>#icon-1604-0288D1-nodesc</styleUrl>
      <Point>
        <coordinates>
          9.7148918,40.6303604,0
        </coordinates>
      </Point>
    </Placemark>
  </Document>
</kml>
